{
    "links": {
        "self": "http://www.neowsapp.com/rest/v1/neo/3092493?api_key=iIulBulltgU6a56xZRHN4H3l9WmuAYTsLGpBGhQ2"
    },
    "id": "3092493",
    "neo_reference_id": "3092493",
    "name": "(2001 VE76)",
    "designation": "2001 VE76",
    "nasa_jpl_url": "http://ssd.jpl.nasa.gov/sbdb.cgi?sstr=3092493",
    "absolute_magnitude_h": 23.6,
    "estimated_diameter": {
        "kilometers": {
            "estimated_diameter_min": 0.0506471459,
            "estimated_diameter_max": 0.1132504611
        },
        "meters": {
            "estimated_diameter_min": 50.6471458835,
            "estimated_diameter_max": 113.2504610618
        },
        "miles": {
            "estimated_diameter_min": 0.0314706677,
            "estimated_diameter_max": 0.0703705522
        },
        "feet": {
            "estimated_diameter_min": 166.1651821003,
            "estimated_diameter_max": 371.5566426699
        }
    },
    "is_potentially_hazardous_asteroid": false,
    "close_approach_data": [
        {
            "close_approach_date": "2001-11-24",
            "close_approach_date_full": "2001-Nov-24 04:18",
            "epoch_date_close_approach": 1006575480000,
            "relative_velocity": {
                "kilometers_per_second": "12.3164112313",
                "kilometers_per_hour": "44339.0804326969",
                "miles_per_hour": "27550.5802833055"
            },
            "miss_distance": {
                "astronomical": "0.0389541134",
                "lunar": "15.1531501126",
                "kilometers": "5827452.392378458",
                "miles": "3621011.0081124004"
            },
            "orbiting_body": "Earth"
        }
    ],
    "orbital_data": {
        "orbit_id": "9",
        "orbit_determination_date": "2017-04-06 09:15:50",
        "first_observation_date": "2001-11-15",
        "last_observation_date": "2001-11-21",
        "data_arc_in_days": 6,
        "observations_used": 22,
        "orbit_uncertainty": "9",
        "minimum_orbit_intersection": ".0328338",
        "jupiter_tisserand_invariant": "3.974",
        "epoch_osculation": "2452230.5",
        "eccentricity": ".5147869458403604",
        "semi_major_axis": "1.743835476389456",
        "inclination": "4.172161133638945",
        "ascending_node_longitude": "217.5384604081619",
        "orbital_period": "841.1175406744281",
        "perihelion_distance": ".8461317374508578",
        "perihelion_argument": "262.2231285333527",
        "aphelion_distance": "2.641539215328053",
        "perihelion_time": "2452278.441858618848",
        "mean_anomaly": "339.4807880371314",
        "mean_motion": ".4280020123125044",
        "equinox": "J2000",
        "orbit_class": {
            "orbit_class_type": "APO",
            "orbit_class_description": "Near-Earth asteroid orbits which cross the Earth’s orbit similar to that of 1862 Apollo",
            "orbit_class_range": "a (semi-major axis) > 1.0 AU; q (perihelion) < 1.017 AU"
        }
    },
    "is_sentry_object": false
}